O3B MPOWER F1           
1 54755U 22174A   23251.80501060 -.00000031  00000+0  00000+0 0  9998
2 54755   0.0451  15.8780 0004718 166.1401  12.1876  5.00118492 14714
